OBJECT_NAME,OBJECT_ID,EPOCH,MEAN_MOTION,ECCENTRICITY,INCLINATION,RA_OF_ASC_NODE,ARG_OF_PERICENTER,MEAN_ANOMALY,EPHEMERIS_TYPE,CLASSIFICATION_TYPE,NORAD_CAT_ID,ELEMENT_SET_NO,REV_AT_EPOCH,BSTAR,MEAN_MOTION_DOT,MEAN_MOTION_DDOT
TIANMU-1 21,2023-208C,2026-07-01T04:42:38.158272,15.35324750,.000573,97.4522,301.9612,261.7990,98.2603,0,U,58662,999,13971,.35425E-3,.12082E-3,0
TIANMU-1 22,2023-208D,2026-07-01T04:32:00.489120,15.31250774,.0002216,97.4518,298.4862,296.2582,63.8431,0,U,58663,999,13947,.29246E-3,.8751E-4,0
TIANMU-1 15,2024-004A,2026-06-30T11:12:42.827904,15.26842605,.00055277,97.4663,7.6584,295.8617,64.2051,0,U,58700,999,13780,.20672607E-3,.5379E-4,0
TIANMU-1 16,2024-004B,2026-07-01T04:17:02.748192,15.26888952,.0004579,97.4610,7.5937,312.4197,47.6654,0,U,58701,999,13791,.23792E-3,.6211E-4,0
TIANMU-1 17,2024-004C,2026-07-01T03:56:06.900000,15.26887260,.0004217,97.4638,8.0693,320.5360,39.5571,0,U,58702,999,13790,.23171E-3,.6046E-4,0
TIANMU-1 18,2024-004D,2026-07-01T04:54:57.057120,15.26806219,.0003435,97.4656,8.3714,295.6973,64.3911,0,U,58703,999,13791,.23465E-3,.6108E-4,0
INSAT-3DS,2024-033A,2026-07-01T02:26:35.894112,1.00269742,.0001475,0.0693,97.5156,353.5574,306.7832,0,U,58990,999,4720,0,-.145E-5,0
METEOR-M2 4,2024-039A,2026-07-01T04:21:20.892384,14.22430893,.0007979,98.7017,141.3040,123.8059,236.3880,0,U,59051,999,12125,.21105E-4,.3E-7,0
GOES 19,2024-119A,2026-07-01T04:43:02.960256,1.00271708,.0000509,0.0069,125.6341,26.3963,122.7969,0,U,60133,999,710,0,-.238E-5,0
MTG-S1,2025-143A,2026-07-01T03:45:40.226112,1.00272459,.0002833,0.5929,341.8630,265.0195,88.2898,0,U,64723,999,355,0,.3E-7,0
METOP-SGA1,2025-172A,2026-07-01T02:13:55.856640,14.19817264,.0007848,98.6639,241.5263,13.7285,346.4104,0,U,65159,999,4576,.43927E-4,.5E-6,0
FENGYUN 3H,2025-219A,2026-07-01T01:31:54.359040,14.19922696,.0001423,98.6770,122.5632,66.7969,293.3358,0,U,65815,999,3935,.42096E-4,.46E-6,0
