TIANMU-1 21             
1 58662U 23208C   26182.19627498  .00012082  00000+0  35425-3 0  9991
2 58662  97.4522 301.9612 0005730 261.7990  98.2603 15.35324750139713
TIANMU-1 22             
1 58663U 23208D   26182.18889455  .00008751  00000+0  29246-3 0  9996
2 58663  97.4518 298.4862 0002216 296.2582  63.8431 15.31250774139472
TIANMU-1 15             
1 58700U 24004A   26181.46716236  .00005379  00000+0  20673-3 0  9997
2 58700  97.4663   7.6584 0005527 295.8617  64.2051 15.26842605137800
TIANMU-1 16             
1 58701U 24004B   26182.17850403  .00006211  00000+0  23792-3 0  9993
2 58701  97.4610   7.5937 0004579 312.4197  47.6654 15.26888952137910
TIANMU-1 17             
1 58702U 24004C   26182.16396875  .00006046  00000+0  23171-3 0  9998
2 58702  97.4638   8.0693 0004217 320.5360  39.5571 15.26887260137905
TIANMU-1 18             
1 58703U 24004D   26182.20482705  .00006108  00000+0  23465-3 0  9997
2 58703  97.4656   8.3714 0003435 295.6973  64.3911 15.26806219137916
INSAT-3DS               
1 58990U 24033A   26182.10180433 -.00000145  00000+0  00000+0 0  9991
2 58990   0.0693  97.5156 0001475 353.5574 306.7832  1.00269742 47206
METEOR-M2 4             
1 59051U 24039A   26182.18149181  .00000003  00000+0  21105-4 0  9995
2 59051  98.7017 141.3040 0007979 123.8059 236.3880 14.22430893121254
GOES 19                 
1 60133U 24119A   26182.19656204 -.00000238  00000+0  00000+0 0  9994
2 60133   0.0069 125.6341 0000509  26.3963 122.7969  1.00271708  7105
MTG-S1                  
1 64723U 25143A   26182.15671558  .00000003  00000+0  00000+0 0  9995
2 64723   0.5929 341.8630 0002833 265.0195  88.2898  1.00272459  3554
METOP-SGA1              
1 65159U 25172A   26182.09300760  .00000050  00000+0  43927-4 0  9990
2 65159  98.6639 241.5263 0007848  13.7285 346.4104 14.19817264 45762
FENGYUN 3H              
1 65815U 25219A   26182.06382360  .00000046  00000+0  42096-4 0  9995
2 65815  98.6770 122.5632 0001423  66.7969 293.3358 14.19922696 39350
